H1 CPF  1  DLR 2022 05 03 10  6232 technosat            
H2  1704205 6203    42829 2022 05 03 00 00 00 2022 05 10 00 00 00    60 1 1  0 0 0
H9
10 0 59708  79200.000000  0      -5964447.650       3484666.912      -1019991.635
10 0 59708  79260.000000  0      -5962296.198       3587152.443       -573597.636
10 0 59708  79320.000000  0      -5934264.208       3674434.826       -124776.369
10 0 59708  79380.000000  0      -5880593.960       3745915.070        324572.849
10 0 59708  79440.000000  0      -5801641.421       3801063.437        772546.909
10 0 59708  79500.000000  0      -5697874.216       3839422.752       1217247.080
10 0 59708  79560.000000  0      -5569869.167       3860611.452       1656787.272
10 0 59708  79620.000000  0      -5418309.161       3864326.191       2089302.269
10 0 59708  79680.000000  0      -5243979.649       3850344.088       2512955.716
10 0 59708  79740.000000  0      -5047764.710       3818524.648       2925948.174
10 0 59708  79800.000000  0      -4830642.509       3768811.195       3326524.975
10 0 59708  79860.000000  0      -4593680.373       3701231.926       3712983.813
10 0 59708  79920.000000  0      -4338029.438       3615900.504       4083682.115
10 0 59708  79980.000000  0      -4064918.952       3513016.203       4437044.048
10 0 59708  80040.000000  0      -3775650.353       3392863.734       4771567.275
10 0 59708  80100.000000  0      -3471590.898       3255812.636       5085829.461
10 0 59708  80160.000000  0      -3154167.026       3102316.206       5378494.294
10 0 59708  80220.000000  0      -2824857.534       2932910.008       5648317.142
10 0 59708  80280.000000  0      -2485186.559       2748209.989       5894150.301
10 0 59708  80340.000000  0      -2136716.419       2548910.224       6114947.828
10 0 59708  80400.000000  0      -1781040.270       2335780.245       6309769.948
10 0 59708  80460.000000  0      -1419774.663       2109661.977       6477786.862
10 0 59708  80520.000000  0      -1054552.203       1871466.411       6618282.117
10 0 59708  80580.000000  0       -687014.195       1622169.901       6730655.630
10 0 59708  80640.000000  0       -318803.225       1362810.105       6814426.228
10 0 59708  80700.000000  0         48444.228       1094481.660       6869233.667
10 0 59708  80760.000000  0        413105.098        818331.550       6894840.159
10 0 59708  80820.000000  0        773576.931        535554.211       6891131.410
10 0 59708  80880.000000  0       1128284.944        247386.379       6858117.191
10 0 59708  80940.000000  0       1475688.957        -44898.311       6795931.422
10 0 59708  81000.000000  0       1814290.151       -339994.980       6704831.774
10 0 59708  81060.000000  0       2142637.605       -636573.385       6585198.707
10 0 59708  81120.000000  0       2459334.598       -933283.904       6437534.042
10 0 59708  81180.000000  0       2763044.721      -1228763.690       6262459.070
10 0 59708  81240.000000  0       3052497.704      -1521643.009       6060712.138
10 0 59708  81300.000000  0       3326494.926      -1810551.697       5833145.674
10 0 59708  81360.000000  0       3583914.572      -2094125.633       5580722.708
10 0 59708  81420.000000  0       3823716.423      -2371013.244       5304512.962
10 0 59708  81480.000000  0       4044946.292      -2639882.067       5005688.472
10 0 59708  81540.000000  0       4246740.054      -2899425.331       4685518.735
10 0 59708  81600.000000  0       4428327.258      -3148368.469       4345365.385
10 0 59708  81660.000000  0       4589034.296      -3385475.542       3986676.409
10 0 59708  81720.000000  0       4728287.110      -3609555.537       3610979.969
10 0 59708  81780.000000  0       4845613.450      -3819468.501       3219877.801
10 0 59708  81840.000000  0       4940644.587      -4014131.462       2815038.201
10 0 59708  81900.000000  0       5013116.480      -4192524.085       2398188.705
10 0 59708  81960.000000  0       5062870.403      -4353694.082       1971108.503
10 0 59708  82020.000000  0       5089853.083      -4496762.320       1535620.595
10 0 59708  82080.000000  0       5094116.298      -4620927.581       1093583.718
10 0 59708  82140.000000  0       5075815.968      -4725470.965        646884.106
10 0 59708  82200.000000  0       5035210.676      -4809759.909        197427.092
10 0 59708  82260.000000  0       4972659.685      -4873251.730       -252871.345
10 0 59708  82320.000000  0       4888620.519      -4915496.733       -702093.086
10 0 59708  82380.000000  0       4783645.999      -4936140.856      -1148326.425
10 0 59708  82440.000000  0       4658380.773      -4934927.807      -1589674.482
10 0 59708  82500.000000  0       4513557.472      -4911700.740      -2024263.516
10 0 59708  82560.000000  0       4349992.450      -4866403.415      -2450251.109
10 0 59708  82620.000000  0       4168581.109      -4799080.832      -2865834.145
10 0 59708  82680.000000  0       3970292.879      -4709879.407      -3269256.528
10 0 59708  82740.000000  0       3756165.926      -4599046.624      -3658816.635
10 0 59708  82800.000000  0       3527301.599      -4466930.211      -4032874.480
10 0 59708  82860.000000  0       3284858.591      -4313976.819      -4389858.548
10 0 59708  82920.000000  0       3030046.900      -4140730.219      -4728272.231
10 0 59708  82980.000000  0       2764121.611      -3947829.064      -5046699.845
10 0 59708  83040.000000  0       2488376.586      -3736004.231      -5343812.199
10 0 59708  83100.000000  0       2204138.128      -3506075.792      -5618371.747
10 0 59708  83160.000000  0       1912758.602      -3258949.640      -5869237.384
10 0 59708  83220.000000  0       1615609.981      -2995613.736      -6095368.816
10 0 59708  83280.000000  0       1314077.396      -2717134.008      -6295830.520
10 0 59708  83340.000000  0       1009552.695      -2424649.854      -6469795.241
10 0 59708  83400.000000  0        703428.089      -2119369.342      -6616546.986
10 0 59708  83460.000000  0        397089.902      -1802564.147      -6735483.553
10 0 59708  83520.000000  0         91912.450      -1475564.246      -6826118.614
10 0 59708  83580.000000  0       -210747.932      -1139752.358      -6888083.348
10 0 59708  83640.000000  0       -509558.689       -796558.206      -6921127.669
10 0 59708  83700.000000  0       -803216.720       -447452.578      -6925121.050
10 0 59708  83760.000000  0      -1090453.903        -93941.181      -6900052.872
10 0 59708  83820.000000  0      -1370042.390        262441.647      -6846032.332
10 0 59708  83880.000000  0      -1640799.664        620139.371      -6763287.962
10 0 59708  83940.000000  0      -1901593.366        977579.868      -6652166.717
10 0 59708  84000.000000  0      -2151345.846       1333182.123      -6513132.608
10 0 59708  84060.000000  0      -2389038.479       1685362.952      -6346764.952
10 0 59708  84120.000000  0      -2613715.765       2032543.841      -6153756.247
10 0 59708  84180.000000  0      -2824489.123       2373157.888      -5934909.582
10 0 59708  84240.000000  0      -3020540.357       2705656.739      -5691135.625
10 0 59708  84300.000000  0      -3201124.880       3028517.533      -5423449.218
10 0 59708  84360.000000  0      -3365574.621       3340249.835      -5132965.505
10 0 59708  84420.000000  0      -3513300.591       3639402.501      -4820895.619
10 0 59708  84480.000000  0      -3643795.073       3924570.458      -4488541.954
10 0 59708  84540.000000  0      -3756633.427       4194401.338      -4137293.016
10 0 59708  84600.000000  0      -3851475.505       4447601.950      -3768617.903
10 0 59708  84660.000000  0      -3928066.643       4682944.535      -3384060.468
10 0 59708  84720.000000  0      -3986238.361       4899272.862      -2985233.145
10 0 59708  84780.000000  0      -4025908.667       5095508.033      -2573810.382
10 0 59708  84840.000000  0      -4047081.941       5270654.006      -2151521.791
10 0 59708  84900.000000  0      -4049848.422       5423802.841      -1720145.006
10 0 59708  84960.000000  0      -4034383.289       5554139.602      -1281498.237
10 0 59708  85020.000000  0      -4000945.294       5660946.860       -837432.514
10 0 59708  85080.000000  0      -3949874.915       5743608.605       -389823.775
10 0 59708  85140.000000  0      -3881592.263       5801613.783         59435.034
10 0 59708  85200.000000  0      -3796594.579       5834559.443        508442.161
10 0 59708  85260.000000  0      -3695453.264       5842153.303        955295.300
10 0 59708  85320.000000  0      -3578810.606       5824215.849       1398099.864
10 0 59708  85380.000000  0      -3447376.102       5780681.860       1834977.307
10 0 59708  85440.000000  0      -3301922.425       5711601.288       2264073.344
10 0 59708  85500.000000  0      -3143281.116       5617139.591       2683565.996
10 0 59708  85560.000000  0      -2972338.023       5497577.505       3091673.470
10 0 59708  85620.000000  0      -2790028.534       5353310.328       3486661.834
10 0 59708  85680.000000  0      -2597332.576       5184846.660       3866852.538
10 0 59708  85740.000000  0      -2395269.415       4992806.552       4230629.646
10 0 59708  85800.000000  0      -2184892.333       4777919.143       4576446.757
10 0 59708  85860.000000  0      -1967283.217       4541019.814       4902833.644
10 0 59708  85920.000000  0      -1743546.988       4283046.811       5208402.587
10 0 59708  85980.000000  0      -1514805.962       4005037.342       5491854.236
10 0 59708  86040.000000  0      -1282194.235       3708123.247       5751983.068
10 0 59708  86100.000000  0      -1046852.084       3393526.245       5987682.456
10 0 59708  86160.000000  0       -809920.362       3062552.743       6197949.313
10 0 59708  86220.000000  0       -572534.984       2716588.262       6381888.223
10 0 59708  86280.000000  0       -335821.526       2357091.600       6538715.146
10 0 59708  86340.000000  0       -100889.884       1985588.636       6667760.754
99
